[{"OBJECT_NAME":"STARLINK-4211","OBJECT_ID":"2022-062AV","EPOCH":"2026-03-09T05:25:01.571232","MEAN_MOTION":15.08830167,"ECCENTRICITY":0.00014161,"INCLINATION":53.2203,"RA_OF_ASC_NODE":16.2045,"ARG_OF_PERICENTER":96.2205,"MEAN_ANOMALY":263.8949,"EPHEMERIS_TYPE":0,"CLASSIFICATION_TYPE":"U","NORAD_CAT_ID":52873,"ELEMENT_SET_NO":999,"REV_AT_EPOCH":20599,"BSTAR":3.3241054e-5,"MEAN_MOTION_DOT":2.41e-6,"MEAN_MOTION_DDOT":0},{"OBJECT_NAME":"VANGUARD DEB","OBJECT_ID":"1959-001E","EPOCH":"2026-03-07T12:39:06.509088","MEAN_MOTION":12.4387836,"ECCENTRICITY":0.12157937,"INCLINATION":32.8606,"RA_OF_ASC_NODE":143.872,"ARG_OF_PERICENTER":199.1115,"MEAN_ANOMALY":297.0388,"EPHEMERIS_TYPE":0,"CLASSIFICATION_TYPE":"U","NORAD_CAT_ID":61446,"ELEMENT_SET_NO":999,"REV_AT_EPOCH":97222,"BSTAR":0.0035776478,"MEAN_MOTION_DOT":8.957e-5,"MEAN_MOTION_DDOT":0}]
